[{"OBJECT_NAME":"STARLINK-4352","OBJECT_ID":"2022-077E","EPOCH":"2026-03-09T22:56:34.644192","MEAN_MOTION":15.01259069,"ECCENTRICITY":0.00014078,"INCLINATION":97.6021,"RA_OF_ASC_NODE":250.5114,"ARG_OF_PERICENTER":97.3037,"MEAN_ANOMALY":262.8347,"EPHEMERIS_TYPE":0,"CLASSIFICATION_TYPE":"U","NORAD_CAT_ID":53047,"ELEMENT_SET_NO":999,"REV_AT_EPOCH":20096,"BSTAR":-6.7954167e-5,"MEAN_MOTION_DOT":-9.31e-6,"MEAN_MOTION_DDOT":0},{"OBJECT_NAME":"COSMOS 2251 DEB","OBJECT_ID":"1993-036AWS","EPOCH":"2026-03-08T21:06:04.726368","MEAN_MOTION":14.95261151,"ECCENTRICITY":0.00284276,"INCLINATION":73.9951,"RA_OF_ASC_NODE":273.3001,"ARG_OF_PERICENTER":6.025,"MEAN_ANOMALY":354.1269,"EPHEMERIS_TYPE":0,"CLASSIFICATION_TYPE":"U","NORAD_CAT_ID":36000,"ELEMENT_SET_NO":999,"REV_AT_EPOCH":61455,"BSTAR":0.0026863031,"MEAN_MOTION_DOT":0.00029903,"MEAN_MOTION_DDOT":0}]
